{"fetched_at":"2026-03-29T02:12:04Z","count":15717,"tles":[{"name":"CHINASAT 3B","line1":"1 64062U 25106A   26087.12127925 -.00000065  00000+0  00000+0 0  9994","line2":"2 64062   0.0423   0.8450 0001394 349.2474  46.4072  1.00270398  3248","category":"Other"}]}